IRIDIUM 26              
1 24903U 97043A   25298.87070108  .00000657  00000+0  21388-3 0  9990
2 24903  86.3962  55.6731 0002128  87.6169 272.5272 14.37265950475512
IRIDIUM 22              
1 24907U 97043E   25298.83929837  .00000596  00000+0  19837-3 0  9990
2 24907  86.3960  59.3390 0001970  91.0761 269.0661 14.36065965475524
DUMMY MASS 1            
1 24925U 97048A   25298.89714303  .00000737  00000+0  78967-4 0  9998
2 24925  86.3321  74.8424 0008421  54.8584 305.3429 14.87114161524556
DUMMY MASS 2            
1 24926U 97048B   25298.88110577  .00000726  00000+0  78206-4 0  9995
2 24926  86.3319  76.4825 0009431  63.2672 296.9517 14.86865020524325
IRIDIUM 29              
1 24944U 97051A   25298.95449188  .00000706  00000+0  23355-3 0  9992
2 24944  86.3912  89.0093 0001960  95.4311 264.7110 14.36591728472046
IRIDIUM 33              
1 24946U 97051C   25298.94146802  .00000546  00000+0  18512-3 0  9991
2 24946  86.3829  88.2869 0008508  25.4363 334.7251 14.34983361471490
IRIDIUM 28              
1 24948U 97051E   25298.91505874  .00000671  00000+0  21759-3 0  9994
2 24948  86.3921  86.4650 0002259  77.0942 283.0508 14.37496982472624
IRIDIUM 36              
1 24967U 97056C   25298.92746883  .00000596  00000+0  19170-3 0  9998
2 24967  86.3927 118.0944 0001964  82.0778 278.0643 14.37717331471003
